OBJECT_NAME,OBJECT_ID,EPOCH,MEAN_MOTION,ECCENTRICITY,INCLINATION,RA_OF_ASC_NODE,ARG_OF_PERICENTER,MEAN_ANOMALY,EPHEMERIS_TYPE,CLASSIFICATION_TYPE,NORAD_CAT_ID,ELEMENT_SET_NO,REV_AT_EPOCH,BSTAR,MEAN_MOTION_DOT,MEAN_MOTION_DDOT
QARMAN,1998-067RG,2021-10-02T03:27:59.417280,15.68060868,.0003486,51.6357,143.2149,288.6353,71.4265,0,U,45263,999,9204,.58409E-3,.66187E-3,0
SORTIE,1998-067RH,2021-10-01T21:32:26.511648,15.56907972,.000569,51.6410,159.6530,314.6524,45.4003,0,U,45264,999,9177,.27522E-3,.19749E-3,0
ICS-EF (ISS DEB),1998-067RJ,2021-10-01T23:24:24.646464,15.53550470,.0004172,51.6402,166.1030,314.5850,45.4800,0,U,45265,999,9137,.16939E-3,.1052E-3,0
G-SAT,1998-067RK,2021-10-01T21:54:43.843680,15.61600359,.0002442,51.6382,153.7268,26.0221,334.0896,0,U,45597,999,8122,.43089E-3,.37423E-3,0
QUETZAL-1,1998-067RL,2021-10-01T21:38:37.225536,15.65055614,.0001284,51.6377,150.6409,112.1538,247.9594,0,U,45598,999,8119,.55413E-3,.55466E-3,0
RED-EYE 2 (MERLOT),1998-067RM,2021-10-01T17:07:31.340352,15.54994901,.0000452,51.6409,165.9011,36.2039,323.8982,0,U,45800,999,7321,.26932E-3,.17961E-3,0
RED-EYE 3 (CABERNET),1998-067RN,2021-10-01T21:44:55.508928,15.55023250,.0000357,51.6409,164.9386,345.9223,14.1758,0,U,45809,999,7222,.25683E-3,.17122E-3,0
DEMI,1998-067RP,2021-10-01T22:28:52.843872,15.63442108,.0002271,51.6396,153.9028,223.4633,136.6183,0,U,45916,999,6936,.57019E-3,.53526E-3,0
SPOC,1998-067RR,2021-10-01T23:28:41.250144,15.56935690,.0002795,51.6408,163.9445,123.5839,236.5420,0,U,46921,999,5143,.37434E-3,.27083E-3,0
BOBCAT-1,1998-067RS,2021-10-01T06:15:53.865504,15.59996266,.0002787,51.6409,164.4334,133.8600,226.2624,0,U,46922,999,5133,.51851E-3,.42446E-3,0
NEUTRON-1,1998-067RT,2021-10-02T01:36:07.919712,15.56807443,.0002746,51.6409,163.7826,132.2114,227.9111,0,U,46923,999,5147,.35669E-3,.25653E-3,0
1998-067RU,1998-067RU,2021-10-02T01:45:53.969184,15.68355652,.0003894,51.6363,153.2821,178.1166,181.9846,0,U,46924,999,5157,.87451E-3,.101029E-2,0
LEMUR-2-BAXTER-OLIVER,1998-067RV,2021-10-01T22:20:05.939520,15.70744506,.0003436,51.6415,152.3988,178.6993,181.4015,0,U,46925,999,5155,.96946E-3,.124092E-2,0
LEMUR-2-DJARA,1998-067RW,2021-10-02T02:04:19.638624,15.67953020,.0002247,51.6413,153.4456,167.3573,192.7480,0,U,46926,999,5156,.9172E-3,.10427E-2,0
DESCENT,1998-067RX,2021-10-01T21:06:08.725824,15.56824001,.0002903,51.6407,164.7758,146.9058,213.2116,0,U,46927,999,5136,.35855E-3,.25807E-3,0
ISS DEB,1998-067RZ,2021-10-02T02:33:28.419552,15.50022309,.0003346,51.6429,173.0182,121.1525,238.9792,0,U,47853,999,3180,.87173E-4,.4526E-4,0
RSP-01,1998-067SB,2021-10-01T21:12:14.763744,15.54266374,.0002654,51.6416,170.7928,94.7567,265.3727,0,U,47925,999,3131,.43193E-3,.2836E-3,0
TAUSAT-1,1998-067SC,2021-10-01T09:57:19.946880,15.55418515,.0003569,51.6400,172.1541,89.4880,270.6521,0,U,47926,999,3124,.53634E-3,.36915E-3,0
TSURU,1998-067SD,2021-10-01T03:14:12.903648,15.53816363,.0002683,51.6416,174.7925,88.6470,271.4828,0,U,47927,999,3119,.42941E-3,.27726E-3,0
STARS-EC,1998-067SE,2021-10-01T17:34:33.468384,15.55139098,.0006325,51.6408,171.2727,144.5415,215.5998,0,U,47928,999,3127,.57659E-3,.39345E-3,0
MMSATS-1,1998-067SJ,2021-10-01T22:21:49.832064,15.50839734,.0003493,51.6454,173.3244,124.0060,236.1261,0,U,47976,999,3006,.14169E-3,.7879E-4,0
SOYUZ-MS 18,2021-029A,2021-10-01T06:11:45.728160,15.48887264,.0004287,51.6450,178.2593,46.8394,104.8068,0,U,48159,999,2711,.10377E-3,.5249E-4,0
CREW DRAGON 2,2021-030A,2021-10-01T06:11:45.728160,15.48887264,.0004287,51.6450,178.2593,46.8394,104.8068,0,U,48209,999,2536,.10377E-3,.5249E-4,0
TIANHE,2021-035A,2021-10-02T04:57:06.856704,15.61386302,.0000675,41.4714,350.2625,343.6520,221.3050,0,U,48274,999,2443,.66201E-4,.547E-4,0
TIANZHOU-2,2021-046A,2021-10-01T12:48:25.714080,15.61378428,.0000947,41.4715,354.3609,343.7614,35.0327,0,U,48803,999,2433,.65818E-4,.5434E-4,0
RAMSAT,1998-067SL,2021-10-01T10:33:01.113408,15.51353764,.0004719,51.6418,176.0470,163.0564,197.0584,0,U,48850,999,1695,.29503E-3,.17247E-3,0
SOAR,1998-067SM,2021-10-02T02:30:19.587168,15.55465813,.000575,51.6390,171.4771,160.6216,199.4995,0,U,48851,999,1711,.11026E-2,.76957E-3,0
BD-28,1998-067SP,2021-10-01T21:10:26.950368,15.51650606,.0003085,51.6414,173.7564,189.9094,170.1835,0,U,48867,999,1577,.33459E-3,.19838E-3,0
MIR-SAT 1,1998-067SN,2021-10-01T03:41:44.064672,15.52827910,.000381,51.6407,177.1417,156.0251,204.0917,0,U,48868,999,1569,.64388E-3,.40399E-3,0
PROGRESS-MS 17,2021-057A,2021-10-01T06:11:45.728160,15.48887264,.0004287,51.6450,178.2593,46.8394,104.8068,0,U,48869,999,1446,.10377E-3,.5249E-4,0
ISS (NAUKA),2021-066A,2021-10-01T06:11:45.728160,15.48887264,.0004287,51.6450,178.2593,46.8394,104.8068,0,U,49044,999,30503,.10377E-3,.5249E-4,0
