QARMAN                  
1 45263U 98067RG  21275.14443770  .00066187  00000-0  58409-3 0  9994
2 45263  51.6357 143.2149 0003486 288.6353  71.4265 15.68060868 92047
SORTIE                  
1 45264U 98067RH  21274.89752907  .00019749  00000-0  27522-3 0  9995
2 45264  51.6410 159.6530 0005690 314.6524  45.4003 15.56907972 91775
G-SAT                   
1 45597U 98067RK  21274.91300745  .00037423  00000-0  43089-3 0  9991
2 45597  51.6382 153.7268 0002442  26.0221 334.0896 15.61600359 81226
QUETZAL-1               
1 45598U 98067RL  21274.90181974  .00055466  00000-0  55413-3 0  9993
2 45598  51.6377 150.6409 0001284 112.1538 247.9594 15.65055614 81190
RED-EYE 2 (MERLOT)      
1 45800U 98067RM  21274.71355718  .00017961  00000-0  26932-3 0  9999
2 45800  51.6409 165.9011 0000452  36.2039 323.8982 15.54994901 73216
RED-EYE 3 (CABERNET)    
1 45809U 98067RN  21274.90619802  .00017122  00000-0  25683-3 0  9997
2 45809  51.6409 164.9386 0000357 345.9223  14.1758 15.55023250 72220
DEMI                    
1 45916U 98067RP  21274.93672273  .00053526  00000-0  57019-3 0  9996
2 45916  51.6396 153.9028 0002271 223.4633 136.6183 15.63442108 69366
SPOC                    
1 46921U 98067RR  21274.97825521  .00027083  00000-0  37434-3 0  9991
2 46921  51.6408 163.9445 0002795 123.5839 236.5420 15.56935690 51438
BOBCAT-1                
1 46922U 98067RS  21274.26104011  .00042446  00000-0  51851-3 0  9997
2 46922  51.6409 164.4334 0002787 133.8600 226.2624 15.59996266 51334
NEUTRON-1               
1 46923U 98067RT  21275.06675833  .00025653  00000-0  35669-3 0  9992
2 46923  51.6409 163.7826 0002746 132.2114 227.9111 15.56807443 51470
1998-067RU              
1 46924U 98067RU  21275.07354131  .00101029  00000-0  87451-3 0  9997
2 46924  51.6363 153.2821 0003894 178.1166 181.9846 15.68355652 51578
LEMUR-2-BAXTER-OLIVER   
1 46925U 98067RV  21274.93062430  .00124092  00000-0  96946-3 0  9994
2 46925  51.6415 152.3988 0003436 178.6993 181.4015 15.70744506 51550
LEMUR-2-DJARA           
1 46926U 98067RW  21275.08633841  .00104270  00000-0  91720-3 0  9993
2 46926  51.6413 153.4456 0002247 167.3573 192.7480 15.67953020 51560
DESCENT                 
1 46927U 98067RX  21274.87926766  .00025807  00000-0  35855-3 0  9996
2 46927  51.6407 164.7758 0002903 146.9058 213.2116 15.56824001 51361
RSP-01                  
1 47925U 98067SB  21274.88350421  .00028360  00000-0  43193-3 0  9996
2 47925  51.6416 170.7928 0002654  94.7567 265.3727 15.54266374 31314
TAUSAT-1                
1 47926U 98067SC  21274.41481420  .00036915  00000-0  53634-3 0  9996
2 47926  51.6400 172.1541 0003569  89.4880 270.6521 15.55418515 31240
TSURU                   
1 47927U 98067SD  21274.13487157  .00027726  00000-0  42941-3 0  9998
2 47927  51.6416 174.7925 0002683  88.6470 271.4828 15.53816363 31198
STARS-EC                
1 47928U 98067SE  21274.73233181  .00039345  00000-0  57659-3 0  9993
2 47928  51.6408 171.2727 0006325 144.5415 215.5998 15.55139098 31271
MMSATS-1                
1 47976U 98067SJ  21274.93182676  .00007879  00000-0  14169-3 0  9996
2 47976  51.6454 173.3244 0003493 124.0060 236.1261 15.50839734 30061
SOYUZ-MS 18             
1 48159U 21029A   21274.25816815  .00005249  00000-0  10377-3 0  9994
2 48159  51.6450 178.2593 0004287  46.8394 104.8068 15.48887264 27111
CREW DRAGON 2           
1 48209U 21030A   21274.25816815  .00005249  00000-0  10377-3 0  9992
2 48209  51.6450 178.2593 0004287  46.8394 104.8068 15.48887264 25362
TIANHE                  
1 48274U 21035A   21275.20632936  .00005470  00000-0  66201-4 0  9999
2 48274  41.4714 350.2625 0000675 343.6520 221.3050 15.61386302 24433
TIANZHOU-2              
1 48803U 21046A   21274.53363095  .00005434  00000-0  65818-4 0  9994
2 48803  41.4715 354.3609 0000947 343.7614  35.0327 15.61378428 24332
RAMSAT                  
1 48850U 98067SL  21274.43959622  .00017247  00000-0  29503-3 0  9994
2 48850  51.6418 176.0470 0004719 163.0564 197.0584 15.51353764 16958
SOAR                    
1 48851U 98067SM  21275.10439337  .00076957  00000-0  11026-2 0  9999
2 48851  51.6390 171.4771 0005750 160.6216 199.4995 15.55465813 17118
BD-28                   
1 48867U 98067SN  21274.88225637  .00019838  00000-0  33459-3 0  9996
2 48867  51.6414 173.7564 0003085 189.9094 170.1835 15.51650606 15775
MIR-SAT 1               
1 48868U 98067SP  21274.15398223  .00040399  00000-0  64388-3 0  9990
2 48868  51.6407 177.1417 0003810 156.0251 204.0917 15.52827910 15693
PROGRESS-MS 17          
1 48869U 21057A   21274.25816815  .00005249  00000-0  10377-3 0  9993
2 48869  51.6450 178.2593 0004287  46.8394 104.8068 15.48887264 14463
ISS (NAUKA)             
1 49044U 21066A   21274.25816815  .00005249  00000-0  10377-3 0  9999
2 49044  51.6450 178.2593 0004287  46.8394 104.8068 15.48887264305035
ICS-EF (ISS DEB)        
1 45265U 98067RJ  21274.97528526  .00010520  00000-0  16939-3 0  9991
2 45265  51.6402 166.1030 0004172 314.5850  45.4800 15.53550470 91375
ISS DEB                 
1 47853U 98067RZ  21275.10657893  .00004526  00000-0  87173-4 0  9990
2 47853  51.6429 173.0182 0003346 121.1525 238.9792 15.50022309 31800
